{
  "type": "FeatureCollection",
  "features": [
    {
      "type": "Feature",
      "properties": {
        "norad_id": 44231,
        "name": "BEIDOU-2 G8 (C01)",
        "group": "gnss",
        "lat": -1.686595545466994,
        "lon": -11.735102767144166,
        "alt_km": 35751.88197094291,
        "timestamp": "2025-12-21T07:34:34.764369+00:00",
        "meta_object_name": "BEIDOU-2 G8 (C01)",
        "meta_object_id": "2019-027A",
        "meta_epoch": "2025-12-19T12:14:23.449632",
        "meta_mean_motion": 1.00276563,
        "meta_eccentricity": 0.0008196,
        "meta_inclination": 1.6785,
        "meta_ra_of_asc_node": 74.7229,
        "meta_arg_of_pericenter": 258.5641,
        "meta_mean_anomaly": 83.1013,
        "meta_ephemeris_type": 0,
        "meta_classification_type": "U",
        "meta_norad_cat_id": 44231,
        "meta_element_set_no": 999,
        "meta_rev_at_epoch": 2427,
        "meta_bstar": 0,
        "meta_mean_motion_dot": -2.24e-06,
        "meta_mean_motion_ddot": 0,
        "tle_line1": "1 44231U 19027A   25353.50999363 -.00000224  00000+0  00000+0 0  9992",
        "tle_line2": "2 44231   1.6785  74.7229 0008196 258.5641  83.1013  1.00276563 24270"
      },
      "geometry": {
        "type": "Point",
        "coordinates": [
          -11.735102767144166,
          -1.686595545466994
        ]
      }
    },
    {
      "type": "Feature",
      "properties": {
        "norad_id": 44299,
        "name": "COSMOS 2534 (758)",
        "group": "gnss",
        "lat": 50.000148521082096,
        "lon": -16.3195362425953,
        "alt_km": 19145.417934177476,
        "timestamp": "2025-12-21T07:34:34.764380+00:00",
        "meta_object_name": "COSMOS 2534 (758)",
        "meta_object_id": "2019-030A",
        "meta_epoch": "2025-12-18T18:30:09.690336",
        "meta_mean_motion": 2.13102412,
        "meta_eccentricity": 0.0008748,
        "meta_inclination": 64.3658,
        "meta_ra_of_asc_node": 198.6898,
        "meta_arg_of_pericenter": 284.2192,
        "meta_mean_anomaly": 45.4012,
        "meta_ephemeris_type": 0,
        "meta_classification_type": "U",
        "meta_norad_cat_id": 44299,
        "meta_element_set_no": 999,
        "meta_rev_at_epoch": 5107,
        "meta_bstar": 0,
        "meta_mean_motion_dot": 1.08e-06,
        "meta_mean_motion_ddot": 0,
        "tle_line1": "1 44299U 19030A   25352.77094549  .00000108  00000+0  00000+0 0  9990",
        "tle_line2": "2 44299  64.3658 198.6898 0008748 284.2192  45.4012  2.13102412 51071"
      },
      "geometry": {
        "type": "Point",
        "coordinates": [
          -16.3195362425953,
          50.000148521082096
        ]
      }
    },
    {
      "type": "Feature",
      "properties": {
        "norad_id": 44337,
        "name": "BEIDOU-3 IGSO-2 (C39)",
        "group": "gnss",
        "lat": 14.243027844634147,
        "lon": -29.76287957223866,
        "alt_km": 35663.56373767961,
        "timestamp": "2025-12-21T07:34:34.764390+00:00",
        "meta_object_name": "BEIDOU-3 IGSO-2 (C39)",
        "meta_object_id": "2019-035A",
        "meta_epoch": "2025-12-20T20:45:51.571008",
        "meta_mean_motion": 1.00268938,
        "meta_eccentricity": 0.00375986,
        "meta_inclination": 55.2283,
        "meta_ra_of_asc_node": 160.43,
        "meta_arg_of_pericenter": 202.2266,
        "meta_mean_anomaly": 157.9019,
        "meta_ephemeris_type": 0,
        "meta_classification_type": "U",
        "meta_norad_cat_id": 44337,
        "meta_element_set_no": 999,
        "meta_rev_at_epoch": 2388,
        "meta_bstar": 0,
        "meta_mean_motion_dot": -6.9e-07,
        "meta_mean_motion_ddot": 0,
        "tle_line1": "1 44337U 19035A   25354.86518022 -.00000069  00000+0  00000+0 0  9994",
        "tle_line2": "2 44337  55.2283 160.4300 0037598 202.2266 157.9019  1.00268938 23884"
      },
      "geometry": {
        "type": "Point",
        "coordinates": [
          -29.76287957223866,
          14.243027844634147
        ]
      }
    },
    {
      "type": "Feature",
      "properties": {
        "norad_id": 44506,
        "name": "GPS BIII-2  (PRN 18)",
        "group": "gnss",
        "lat": 49.95565798873256,
        "lon": 103.95472284167144,
        "alt_km": 20165.813598892695,
        "timestamp": "2025-12-21T07:34:34.764400+00:00",
        "meta_object_name": "GPS BIII-2  (PRN 18)",
        "meta_object_id": "2019-056A",
        "meta_epoch": "2025-12-20T05:10:31.696032",
        "meta_mean_motion": 2.00566646,
        "meta_eccentricity": 0.00577304,
        "meta_inclination": 55.7188,
        "meta_ra_of_asc_node": 338.2562,
        "meta_arg_of_pericenter": 198.5398,
        "meta_mean_anomaly": 199.8804,
        "meta_ephemeris_type": 0,
        "meta_classification_type": "U",
        "meta_norad_cat_id": 44506,
        "meta_element_set_no": 999,
        "meta_rev_at_epoch": 4648,
        "meta_bstar": 0,
        "meta_mean_motion_dot": -7.7e-07,
        "meta_mean_motion_ddot": 0,
        "tle_line1": "1 44506U 19056A   25354.21564463 -.00000077  00000+0  00000+0 0  9993",
        "tle_line2": "2 44506  55.7188 338.2562 0057730 198.5398 199.8804  2.00566646 46485"
      },
      "geometry": {
        "type": "Point",
        "coordinates": [
          103.95472284167144,
          49.95565798873256
        ]
      }
    },
    {
      "type": "Feature",
      "properties": {
        "norad_id": 44542,
        "name": "BEIDOU-3 M24 (C46)",
        "group": "gnss",
        "lat": -38.210586068120186,
        "lon": 43.08661288508674,
        "alt_km": 21557.315177807108,
        "timestamp": "2025-12-21T07:34:34.764410+00:00",
        "meta_object_name": "BEIDOU-3 M24 (C46)",
        "meta_object_id": "2019-061A",
        "meta_epoch": "2025-12-20T10:28:25.457664",
        "meta_mean_motion": 1.86229474,
        "meta_eccentricity": 0.00096021,
        "meta_inclination": 54.4004,
        "meta_ra_of_asc_node": 188.7562,
        "meta_arg_of_pericenter": 25.7193,
        "meta_mean_anomaly": 334.3849,
        "meta_ephemeris_type": 0,
        "meta_classification_type": "U",
        "meta_norad_cat_id": 44542,
        "meta_element_set_no": 999,
        "meta_rev_at_epoch": 4246,
        "meta_bstar": 0,
        "meta_mean_motion_dot": 9.8e-07,
        "meta_mean_motion_ddot": 0,
        "tle_line1": "1 44542U 19061A   25354.43640576  .00000098  00000+0  00000+0 0  9995",
        "tle_line2": "2 44542  54.4004 188.7562 0009602  25.7193 334.3849  1.86229474 42462"
      },
      "geometry": {
        "type": "Point",
        "coordinates": [
          43.08661288508674,
          -38.210586068120186
        ]
      }
    },
    {
      "type": "Feature",
      "properties": {
        "norad_id": 44543,
        "name": "BEIDOU-3 M23 (C45)",
        "group": "gnss",
        "lat": 29.745822280520482,
        "lon": -15.482852473378113,
        "alt_km": 21532.413191762767,
        "timestamp": "2025-12-21T07:34:34.764420+00:00",
        "meta_object_name": "BEIDOU-3 M23 (C45)",
        "meta_object_id": "2019-061B",
        "meta_epoch": "2025-12-20T19:59:50.640000",
        "meta_mean_motion": 1.86227682,
        "meta_eccentricity": 0.00060744,
        "meta_inclination": 54.3995,
        "meta_ra_of_asc_node": 188.7112,
        "meta_arg_of_pericenter": 25.3362,
        "meta_mean_anomaly": 153.5268,
        "meta_ephemeris_type": 0,
        "meta_classification_type": "U",
        "meta_norad_cat_id": 44543,
        "meta_element_set_no": 999,
        "meta_rev_at_epoch": 4247,
        "meta_bstar": 0,
        "meta_mean_motion_dot": 9.6e-07,
        "meta_mean_motion_ddot": 0,
        "tle_line1": "1 44543U 19061B   25354.83322500  .00000096  00000+0  00000+0 0  9992",
        "tle_line2": "2 44543  54.3995 188.7112 0006074  25.3362 153.5268  1.86227682 42472"
      },
      "geometry": {
        "type": "Point",
        "coordinates": [
          -15.482852473378113,
          29.745822280520482
        ]
      }
    },
    {
      "type": "Feature",
      "properties": {
        "norad_id": 44624,
        "name": "EUTELSAT 5 WEST B (EGNOS/PRN 121)",
        "group": "gnss",
        "lat": -0.055373026578465066,
        "lon": -161.25508386880688,
        "alt_km": 35782.096765589886,
        "timestamp": "2025-12-21T07:34:34.764430+00:00",
        "meta_object_name": "EUTELSAT 5 WEST B (EGNOS/PRN 121)",
        "meta_object_id": "2019-067A",
        "meta_epoch": "2025-12-20T21:45:55.480032",
        "meta_mean_motion": 1.00271335,
        "meta_eccentricity": 0.00030008,
        "meta_inclination": 0.0666,
        "meta_ra_of_asc_node": 335.803,
        "meta_arg_of_pericenter": 294.0896,
        "meta_mean_anomaly": 141.3279,
        "meta_ephemeris_type": 0,
        "meta_classification_type": "U",
        "meta_norad_cat_id": 44624,
        "meta_element_set_no": 999,
        "meta_rev_at_epoch": 2264,
        "meta_bstar": 0,
        "meta_mean_motion_dot": -1.9e-07,
        "meta_mean_motion_ddot": 0,
        "tle_line1": "1 44624U 19067A   25354.90689213 -.00000019  00000+0  00000+0 0  9999",
        "tle_line2": "2 44624   0.0666 335.8030 0003000 294.0896 141.3279  1.00271335 22646"
      },
      "geometry": {
        "type": "Point",
        "coordinates": [
          -161.25508386880688,
          -0.055373026578465066
        ]
      }
    }
  ]
}